OBJECT_NAME,OBJECT_ID,EPOCH,MEAN_MOTION,ECCENTRICITY,INCLINATION,RA_OF_ASC_NODE,ARG_OF_PERICENTER,MEAN_ANOMALY,EPHEMERIS_TYPE,CLASSIFICATION_TYPE,NORAD_CAT_ID,ELEMENT_SET_NO,REV_AT_EPOCH,BSTAR,MEAN_MOTION_DOT,MEAN_MOTION_DDOT
JCSAT-3A,2006-033A,2026-07-12T17:32:19.022208,1.00277345,.0002034,0.0133,332.3894,149.9042,199.4020,0,U,29272,999,4799,0,-.344E-5,0
KOREASAT 5 (MUGUNGWHA 5),2006-034A,2026-07-12T19:10:50.371968,1.00270971,.0001683,1.8487,82.6706,79.0974,169.6866,0,U,29349,999,4157,0,-.36E-5,0
DIRECTV 9S,2006-043A,2026-07-12T19:52:23.888928,1.00270950,.0004977,2.4844,80.5928,33.2365,13.7817,0,U,29494,999,5164,0,-.116E-5,0
OPTUS D1,2006-043B,2026-07-12T19:21:56.808000,1.00270239,.0003296,3.0982,79.3405,30.7498,263.0509,0,U,29495,999,7237,0,-.188E-5,0
BADR-4,2006-051A,2026-07-12T18:48:11.058048,1.00269921,.0004712,2.0683,80.8398,28.7882,137.5382,0,U,29526,999,5152,0,.153E-5,0
WILDBLUE-1,2006-054A,2026-07-12T14:41:37.611168,1.00270999,.0001237,2.8661,80.1643,35.2319,284.3031,0,U,29643,999,5404,0,-.52E-6,0
SKYNET 5A,2007-007B,2026-07-12T19:02:21.698016,1.00270266,.0003709,5.3632,73.4280,41.4977,196.5563,0,U,30794,999,7095,0,-.277E-5,0
ANIK F3,2007-009A,2026-07-12T14:39:30.312864,1.00269729,.0002361,1.2608,83.5453,26.1222,281.9863,0,U,31102,999,4681,0,-.2E-7,0
ASTRA 1L,2007-016A,2026-07-12T20:14:16.242720,1.00271464,.0005174,1.3855,81.3693,32.9491,95.4704,0,U,31306,999,4524,0,-.187E-5,0
GALAXY 17 (G-17),2007-016B,2026-07-12T19:57:00.946080,1.00270344,.000354,3.0340,79.5770,34.1421,31.2235,0,U,31307,999,7006,0,-.21E-5,0
INTELSAT 11 (IS-11),2007-044B,2026-07-12T20:08:38.664096,0.99051447,.0004101,3.6296,78.3580,100.6009,66.8691,0,U,32253,999,6870,0,-.105E-5,0
WGS F1 (USA 195),2007-046A,2026-07-12T11:35:55.971744,1.00270002,.00004731,0.0143,69.0614,151.8752,200.9245,0,U,32258,999,5258,0,-.266E-5,0
SKYNET 5B,2007-056B,2026-07-12T20:08:38.664096,1.00273566,.0003746,5.3151,73.1975,40.0536,144.7198,0,U,32294,999,6845,0,.134E-5,0
ASTRA 4A,2007-057A,2026-07-12T20:22:37.940736,1.00270582,.000225,0.0460,282.8280,195.2037,123.1512,0,U,32299,999,5190,0,.31E-6,0
HORIZONS-2,2007-063B,2026-07-12T20:00:15.636384,1.00269921,.0003524,2.6657,80.3107,18.8546,57.8175,0,U,32388,999,6807,0,-.257E-5,0
THURAYA-3,2008-001A,2026-07-12T17:10:38.760096,1.00271185,.00021,6.0312,35.8171,76.5447,139.5937,0,U,32404,999,6774,0,.5E-7,0
THOR 5,2008-006A,2026-07-12T18:38:26.992320,1.00270771,.000228,0.0535,233.4778,247.1302,88.9076,0,U,32487,999,6757,0,-.1E-6,0
AMC-14,2008-011A,2026-07-12T12:52:38.706240,1.00420280,.0039678,24.0395,20.2135,8.3248,172.3927,0,U,32708,999,6842,0,-.173E-5,0
DIRECTV 11,2008-013A,2026-07-12T14:44:59.788032,1.00267935,.0000168,0.0123,272.0157,48.6418,91.9069,0,U,32729,999,4584,0,-.125E-5,0
ICO G1,2008-016A,2026-07-12T10:47:38.633280,1.00272699,.0002216,5.5305,36.0591,67.3795,255.9666,0,U,32763,999,6679,0,-.175E-5,0
VINASAT-1,2008-018A,2026-07-12T19:16:12.357984,1.00270345,.0001392,0.0342,293.6890,198.5565,219.4365,0,U,32767,999,6684,0,-.329E-5,0
STAR ONE C2,2008-018B,2026-07-12T20:02:45.396096,1.00271670,.0002664,1.3033,82.2192,45.8249,38.3617,0,U,32768,999,6691,0,-.279E-5,0
AMOS-3,2008-022A,2026-07-12T20:37:59.980800,1.00487422,.0002977,0.5190,85.8438,84.8006,128.0351,0,U,32794,999,8259,0,.19E-6,0
GALAXY 18 (G-18),2008-024A,2026-07-12T18:03:31.032000,1.00270767,.0002802,0.0046,117.4014,9.9046,311.2080,0,U,32951,999,4610,0,.25E-6,0
ZHONGXING-9,2008-028A,2026-07-12T21:24:52.990272,1.00270136,.0003263,0.8310,85.0165,22.0447,237.3085,0,U,33051,999,6629,0,-.25E-5,0
SKYNET 5C,2008-030A,2026-07-12T20:16:16.051872,1.00272400,.0004039,3.8520,76.7346,44.6787,95.5761,0,U,33055,999,6621,0,-.144E-5,0
TURKSAT 3A,2008-030B,2026-07-12T18:50:38.510880,1.00268991,.0004911,0.0285,69.5010,23.4750,162.3433,0,U,33056,999,5261,0,.146E-5,0
ECHOSTAR 11,2008-035A,2026-07-12T14:42:00.075168,1.00270537,.0002187,1.0684,83.8872,16.1415,301.1723,0,U,33207,999,5146,0,-.58E-6,0
SUPERBIRD-C2,2008-038A,2026-07-12T19:17:27.239136,1.00269959,.0006117,2.4245,80.9438,39.2540,235.8550,0,U,33274,999,10598,0,-.309E-5,0
INMARSAT 4-F3,2008-039A,2026-07-12T14:45:22.252032,1.00270162,.0002596,4.3142,31.6882,80.2651,301.8903,0,U,33278,999,4680,0,-.143E-5,0
NIMIQ 4,2008-044A,2026-07-12T14:49:59.309184,1.00268304,.0001896,0.0374,68.4114,47.2285,315.3929,0,U,33373,999,6523,0,0,0
GALAXY 19 (G-19),2008-045A,2026-07-12T14:45:37.226880,1.00272056,.0002323,0.0533,241.2529,240.6557,292.9966,0,U,33376,999,6515,0,-.139E-5,0
