JCSAT-3A                
1 29272U 06033A   26193.73077572 -.00000344  00000+0  00000+0 0  9993
2 29272   0.0133 332.3894 0002034 149.9042 199.4020  1.00277345 47994
KOREASAT 5 (MUGUNGWHA 5)
1 29349U 06034A   26193.79919412 -.00000360  00000+0  00000+0 0  9991
2 29349   1.8487  82.6706 0001683  79.0974 169.6866  1.00270971 41576
DIRECTV 9S              
1 29494U 06043A   26193.82805427 -.00000116  00000+0  00000+0 0  9995
2 29494   2.4844  80.5928 0004977  33.2365  13.7817  1.00270950 51640
OPTUS D1                
1 29495U 06043B   26193.80690750 -.00000188  00000+0  00000+0 0  9994
2 29495   3.0982  79.3405 0003296  30.7498 263.0509  1.00270239 72370
BADR-4                  
1 29526U 06051A   26193.78346132  .00000153  00000+0  00000+0 0  9998
2 29526   2.0683  80.8398 0004712  28.7882 137.5382  1.00269921 51522
WILDBLUE-1              
1 29643U 06054A   26193.61224087 -.00000052  00000+0  00000+0 0  9996
2 29643   2.8661  80.1643 0001237  35.2319 284.3031  1.00270999 54048
SKYNET 5A               
1 30794U 07007B   26193.79330669 -.00000277  00000+0  00000+0 0  9996
2 30794   5.3632  73.4280 0003709  41.4977 196.5563  1.00270266 70959
ANIK F3                 
1 31102U 07009A   26193.61076751 -.00000002  00000+0  00000+0 0  9998
2 31102   1.2608  83.5453 0002361  26.1222 281.9863  1.00269729 46813
ASTRA 1L                
1 31306U 07016A   26193.84324355 -.00000187  00000+0  00000+0 0  9997
2 31306   1.3855  81.3693 0005174  32.9491  95.4704  1.00271464 45241
GALAXY 17 (G-17)        
1 31307U 07016B   26193.83126095 -.00000210  00000+0  00000+0 0  9995
2 31307   3.0340  79.5770 0003540  34.1421  31.2235  1.00270344 70068
INTELSAT 11 (IS-11)     
1 32253U 07044B   26193.83933639 -.00000105  00000+0  00000+0 0  9990
2 32253   3.6296  78.3580 0004101 100.6009  66.8691  0.99051447 68702
WGS F1 (USA 195)        
1 32258U 07046A   26193.48328671 -.00000266  00000+0  00000+0 0  9990
2 32258   0.0143  69.0614 0000473 151.8752 200.9245  1.00270002 52583
SKYNET 5B               
1 32294U 07056B   26193.83933639  .00000134  00000+0  00000+0 0  9999
2 32294   5.3151  73.1975 0003746  40.0536 144.7198  1.00273566 68454
ASTRA 4A                
1 32299U 07057A   26193.84905024  .00000031  00000+0  00000+0 0  9999
2 32299   0.0460 282.8280 0002250 195.2037 123.1512  1.00270582 51908
HORIZONS-2              
1 32388U 07063B   26193.83351431 -.00000257  00000+0  00000+0 0  9992
2 32388   2.6657  80.3107 0003524  18.8546  57.8175  1.00269921 68071
THURAYA-3               
1 32404U 08001A   26193.71572639  .00000005  00000+0  00000+0 0  9996
2 32404   6.0312  35.8171 0002100  76.5447 139.5937  1.00271185 67744
THOR 5                  
1 32487U 08006A   26193.77670130 -.00000010  00000+0  00000+0 0  9990
2 32487   0.0535 233.4778 0002280 247.1302  88.9076  1.00270771 67572
AMC-14                  
1 32708U 08011A   26193.53655910 -.00000173  00000+0  00000+0 0  9995
2 32708  24.0395  20.2135 0039678   8.3248 172.3927  1.00420280 68424
DIRECTV 11              
1 32729U 08013A   26193.61458088 -.00000125  00000+0  00000+0 0  9993
2 32729   0.0123 272.0157 0000168  48.6418  91.9069  1.00267935 45849
ICO G1                  
1 32763U 08016A   26193.44975270 -.00000175  00000+0  00000+0 0  9997
2 32763   5.5305  36.0591 0002216  67.3795 255.9666  1.00272699 66796
VINASAT-1               
1 32767U 08018A   26193.80292081 -.00000329  00000+0  00000+0 0  9996
2 32767   0.0342 293.6890 0001392 198.5565 219.4365  1.00270345 66843
STAR ONE C2             
1 32768U 08018B   26193.83524764 -.00000279  00000+0  00000+0 0  9990
2 32768   1.3033  82.2192 0002664  45.8249  38.3617  1.00271670 66916
AMOS-3                  
1 32794U 08022A   26193.85972200  .00000019  00000+0  00000+0 0  9999
2 32794   0.5190  85.8438 0002977  84.8006 128.0351  1.00487422 82591
GALAXY 18 (G-18)        
1 32951U 08024A   26193.75244250  .00000025  00000+0  00000+0 0  9999
2 32951   0.0046 117.4014 0002802   9.9046 311.2080  1.00270767 46106
ZHONGXING-9             
1 33051U 08028A   26193.89227998 -.00000250  00000+0  00000+0 0  9991
2 33051   0.8310  85.0165 0003263  22.0447 237.3085  1.00270136 66295
SKYNET 5C               
1 33055U 08030A   26193.84463023 -.00000144  00000+0  00000+0 0  9996
2 33055   3.8520  76.7346 0004039  44.6787  95.5761  1.00272400 66215
TURKSAT 3A              
1 33056U 08030B   26193.78516795  .00000146  00000+0  00000+0 0  9996
2 33056   0.0285  69.5010 0004911  23.4750 162.3433  1.00268991 52613
ECHOSTAR 11             
1 33207U 08035A   26193.61250087 -.00000058  00000+0  00000+0 0  9993
2 33207   1.0684  83.8872 0002187  16.1415 301.1723  1.00270537 51466
SUPERBIRD-C2            
1 33274U 08038A   26193.80378749 -.00000309  00000+0  00000+0 0  9996
2 33274   2.4245  80.9438 0006117  39.2540 235.8550  1.00269959105980
INMARSAT 4-F3           
1 33278U 08039A   26193.61484088 -.00000143  00000+0  00000+0 0  9990
2 33278   4.3142  31.6882 0002596  80.2651 301.8903  1.00270162 46802
NIMIQ 4                 
1 33373U 08044A   26193.61804756  .00000000  00000+0  00000+0 0  9991
2 33373   0.0374  68.4114 0001896  47.2285 315.3929  1.00268304 65233
GALAXY 19 (G-19)        
1 33376U 08045A   26193.61501420 -.00000139  00000+0  00000+0 0  9991
2 33376   0.0533 241.2529 0002323 240.6557 292.9966  1.00272056 65152
